[{"OBJECT_NAME":"SURCAL 159","OBJECT_ID":"1967-053F","EPOCH":"2026-03-09T19:37:22.733472","MEAN_MOTION":13.99575786,"ECCENTRICITY":0.00094656,"INCLINATION":69.9733,"RA_OF_ASC_NODE":214.7987,"ARG_OF_PERICENTER":251.1876,"MEAN_ANOMALY":108.8205,"EPHEMERIS_TYPE":0,"CLASSIFICATION_TYPE":"U","NORAD_CAT_ID":2872,"ELEMENT_SET_NO":999,"REV_AT_EPOCH":99630,"BSTAR":0.00015093287,"MEAN_MOTION_DOT":1.67e-6,"MEAN_MOTION_DDOT":0},{"OBJECT_NAME":"METEOR 2-17 DEB","OBJECT_ID":"1988-005M","EPOCH":"2026-03-06T10:34:13.674720","MEAN_MOTION":14.07086403,"ECCENTRICITY":0.00301257,"INCLINATION":82.5205,"RA_OF_ASC_NODE":315.3809,"ARG_OF_PERICENTER":57.7208,"MEAN_ANOMALY":302.6877,"EPHEMERIS_TYPE":0,"CLASSIFICATION_TYPE":"U","NORAD_CAT_ID":29067,"ELEMENT_SET_NO":999,"REV_AT_EPOCH":63618,"BSTAR":0.001540703,"MEAN_MOTION_DOT":2.601e-5,"MEAN_MOTION_DDOT":0}]
